GAOFEN-1                
1 39150U 13018A   24214.94177211  .00001363  00000+0  20245-3 0  9994
2 39150  97.9873 286.8169 0018878 313.8361  46.1288 14.76524809607277
VNREDSAT 1              
1 39160U 13021B   24214.92427953  .00001279  00000+0  25440-3 0  9996
2 39160  97.9946 280.3985 0001587 102.3765 257.7616 14.63712702600121
ARIRANG-5 (KOMPSAT-5)   
1 39227U 13042A   24215.12730896  .00003913  00000+0  28356-3 0  9995
2 39227  97.6209  40.3831 0000700 348.5060  11.6150 15.04536314601069
SKYSAT-A                
1 39418U 13066C   24214.88871162  .00005332  00000+0  37167-3 0  9994
2 39418  97.4850 273.7978 0026271 145.5407 214.7530 15.05541184585225
DUBAISAT-2              
1 39419U 13066D   24215.17380737  .00005998  00000+0  47425-3 0  9997
2 39419  97.4150 218.0354 0014049 193.0116 167.0748 15.00920145583428
GPM-CORE                
1 39574U 14009C   24214.90291671  .00022051  00000+0  47191-3 0  9994
2 39574  64.9850  80.0094 0009499 258.4207 101.5868 15.44764610592117
SENTINEL-1A             
1 39634U 14016A   24215.23057151  .00000477  00000+0  11094-3 0  9990
2 39634  98.1806 221.6599 0001379  90.1240 270.0118 14.59198450550307
KAZEOSAT 1              
1 39731U 14024A   24215.21764066  .00000489  00000+0  16236-3 0  9991
2 39731  98.3934 290.9102 0001270  88.2934 271.8401 14.42003852540032
ALOS-2                  
1 39766U 14029A   24214.55946319  .00003774  00000+0  51182-3 0  9992
2 39766  97.9231 310.5525 0001545  98.8682 261.2705 14.79481171550355
KAZEOSAT 2              
1 40010U 14033A   24215.21585743  .00001172  00000+0  15154-3 0  9994
2 40010  97.6148  78.1072 0013130  61.1658 299.0873 14.82624127547496
HODOYOSHI-4             
1 40011U 14033B   24215.14128217  .00002637  00000+0  31718-3 0  9997
2 40011  97.5785  62.5668 0026342  50.8701 309.4850 14.84485221547183
DEIMOS-2                
1 40013U 14033D   24214.95310043  .00003486  00000+0  37536-3 0  9994
2 40013  97.6753 100.2439 0002514  87.9248 272.2257 14.89095141535705
HODOYOSHI-3             
1 40015U 14033F   24214.95797140  .00002931  00000+0  37603-3 0  9992
2 40015  97.5977  38.3855 0036558  85.4915 275.0473 14.81485527546151
SPOT 7                  
1 40053U 14034A   24215.13183819  .00000996  00000+0  21954-3 0  9999
2 40053  98.1558 281.1470 0001286 108.2398 251.8942 14.59481214537310
SKYSAT-B                
1 40072U 14037D   24214.82070303  .00002339  00000+0  28594-3 0  9991
2 40072  98.3296 128.6053 0005625 350.1230   9.9872 14.84286201544294
WORLDVIEW-3 (WV-3)      
1 40115U 14048A   24215.21518174  .00002440  00000+0  29044-3 0  9992
2 40115  97.8664 287.8922 0001163  73.7805 286.3538 14.85271274540434
GAOFEN-2                
1 40118U 14049A   24215.09809603  .00002273  00000+0  30489-3 0  9991
2 40118  98.1091 265.4151 0006664 272.2019  87.8430 14.80358488538020
YAOGAN-21               
1 40143U 14053A   24215.20892381  .00012853  00000+0  53550-3 0  9991
2 40143  97.2502 271.7294 0007203  23.0643 337.0917 15.23821414550822
YAOGAN-22               
1 40275U 14063A   24214.94402396 -.00000013  00000+0  87666-4 0  9993
2 40275 100.6695 347.1165 0005794 293.0331  67.0169 13.15485638469844
ASNARO                  
1 40298U 14070A   24215.11272719  .00019494  00000+0  91735-3 0  9993
2 40298  97.4104 295.8153 0003844  88.3690 271.7985 15.19583981540149
HODOYOSHI-1             
1 40299U 14070B   24215.09441796  .00037394  00000+0  64188-3 0  9995
2 40299  97.1366 274.7383 0006894 215.6877 144.3916 15.51051799542232
YAOGAN-23               
1 40305U 14071A   24214.92345785  .00059488  00000+0  87836-3 0  9999
2 40305  97.6887 203.2004 0003660 129.0086 231.1494 15.55157879539498
YAOGAN-24               
1 40310U 14072A   24215.21741680  .00001727  00000+0  25639-3 0  9999
2 40310  98.0606 339.6461 0012465 298.7964  61.1993 14.76294721522836
CBERS 4                 
1 40336U 14079A   24215.12251600  .00000279  00000+0  11188-3 0  9997
2 40336  98.3979 282.2512 0001111 128.7595 231.3690 14.35481292505830
RESURS-P 2              
1 40360U 14087A   24215.22052658  .00040227  00000+0  45131-3 0  9998
2 40360  97.1506 302.1706 0006700 123.7356 236.4542 15.62529358538246
YAOGAN-26               
1 40362U 14088A   24215.11557219  .00018959  00000+0  77783-3 0  9997
2 40362  97.0829 233.5796 0002445 186.7799 173.3407 15.24273371534292
SMAP                    
1 40376U 15003A   24214.90814613  .00001120  00000+0  22555-3 0  9999
2 40376  98.1285 220.6531 0001370  97.6028 262.5329 14.63437300507548
KOMPSAT-3A              
1 40536U 15014A   24215.09601037  .00013776  00000+0  58324-3 0  9997
2 40536  97.6141 165.9193 0005057 119.2237 240.9506 15.23285485516690
SENTINEL-2A             
1 40697U 15028A   24214.83691214  .00000267  00000+0  11852-3 0  9993
2 40697  98.5669 288.4535 0001142  94.7079 265.4234 14.30819851475866
GAOFEN-8                
1 40701U 15030A   24215.21137411  .00018058  00000+0  76019-3 0  9992
2 40701  97.6596  10.8637 0004243  48.0352 312.1245 15.23421347506658
CARBONITE 1 (CBNT-1)    
1 40718U 15032D   24214.94584059  .00003303  00000+0  45466-3 0  9994
2 40718  97.6565  52.8752 0015971  20.3727 339.8119 14.78816084488026
YAOGAN-27               
1 40878U 15040A   24215.21076080  .00000020  00000+0  16466-3 0  9992
2 40878 100.0799 221.8572 0008314 358.5024   1.6064 13.16021532429203
GAOFEN-9 01             
1 40894U 15047A   24214.93911920  .00002194  00000+0  29502-3 0  9995
2 40894  97.7272 267.8913 0028162 216.7693 143.1588 14.79969124478865
LAPAN-A2                
1 40931U 15052B   24214.36163490  .00001688  00000+0  14070-3 0  9992
2 40931   6.0012  29.8989 0012848   0.0485 359.9644 14.77963796478157
YAOGAN-28               
1 41026U 15064A   24214.89816787  .00015252  00000+0  64183-3 0  9995
2 41026  97.2155   3.4697 0006104  60.7864 299.3983 15.23450716486448
YAOGAN-29               
1 41038U 15069A   24214.96120748  .00000945  00000+0  12662-3 0  9994
2 41038  98.0547 229.6394 0003060  89.9330 270.2233 14.81782331469249
KENT RIDGE 1            
1 41167U 15077B   24214.83439830  .00005985  00000+0  26998-3 0  9993
2 41167  14.9808 290.5025 0009710 350.1465   9.8665 15.15544566476817
TELEOS-1                
1 41169U 15077D   24214.56402630  .00026367  00000+0  76865-3 0  9998
2 41169  14.9760 190.8276 0006458 179.0436 180.9900 15.33069153477827
GAOFEN-4                
1 41194U 15083A   24214.68615394 -.00000345  00000+0  00000+0 0  9992
2 41194   0.0393 217.1655 0000407 315.7407 130.5519  1.00274223 31662
JASON-3                 
1 41240U 16002A   24214.94142200 -.00000024  00000+0  15995-3 0  9993
2 41240  66.0418 116.3131 0008081 268.4640  91.5449 12.80930452399367
SENTINEL-3A             
1 41335U 16011A   24215.09951391  .00000259  00000+0  12500-3 0  9992
2 41335  98.6214 281.2391 0001087  86.6705 273.4600 14.26738297440517
ZIYUAN 3-2 (ZY 3-2)     
1 41556U 16033A   24215.13305011  .00012417  00000+0  55516-3 0  9991
2 41556  97.4547 290.0511 0000654  79.5303 280.6006 15.21455430453980
CARTOSAT-2C             
1 41599U 16040A   24215.19466868  .00002922  00000+0  14190-3 0  9993
2 41599  97.4712 273.7676 0012530 358.4355   1.6838 15.19189411449869
SKYSAT-C1               
1 41601U 16040C   24215.15499425  .00014658  00000+0  50269-3 0  9994
2 41601  97.0596 273.2702 0003878 100.9127 259.2551 15.30255836453176
LAPAN-A3                
1 41603U 16040E   24214.96223916  .00004774  00000+0  18993-3 0  9990
2 41603  97.1418 226.6200 0010156 304.0368  55.9906 15.25676788450201
BIROS                   
1 41604U 16040F   24214.64485683  .00017226  00000+0  43586-3 0  9999
2 41604  97.1214 241.8434 0006942 230.0038 130.0600 15.39798053451172
GAOFEN-3                
1 41727U 16049A   24215.08499213  .00000167  00000+0  63759-4 0  9998
2 41727  98.4054 222.0713 0001593  92.8475 267.2897 14.42216362420034
SKYSAT-C4               
1 41771U 16058B   24214.87593368  .00018118  00000+0  53611-3 0  9999
2 41771  97.0067 260.1358 0002997  53.8781 306.2741 15.34942233440226
SKYSAT-C5               
1 41772U 16058C   24214.90639922  .00017482  00000+0  52224-3 0  9993
2 41772  97.1553 268.7944 0001769 173.5047 186.6220 15.34654484438704
SKYSAT-C2               
1 41773U 16058D   24214.87670555  .00014948  00000+0  51465-3 0  9997
2 41773  97.0095 258.6310 0003373  72.6940 287.4671 15.30124888440107
SKYSAT-C3               
1 41774U 16058E   24215.10489830  .00022845  00000+0  55279-3 0  9991
2 41774  97.0078 267.2289 0004007 163.8321 196.3055 15.41116590440715
ALSAT 1B                
1 41785U 16059C   24215.17650881  .00000847  00000+0  14555-3 0  9997
2 41785  97.8168 241.7297 0008080 261.5455  98.4837 14.71069969419962
PATHFINDER 1            
1 41787U 16059E   24215.02617958  .00001259  00000+0  23880-3 0  9990
2 41787  97.8298 235.0061 0028464 223.0041 136.8939 14.65627995419417
SCATSAT 1               
1 41790U 16059H   24214.75999890  .00001352  00000+0  20316-3 0  9996
2 41790  98.2176 258.0174 0055327 283.5665  75.9384 14.75265569   488
GOKTURK 1A              
1 41875U 16073A   24215.20675832  .00000858  00000+0  17760-3 0  9993
2 41875  98.1445 108.9482 0001478  85.4983 274.6387 14.62713517408834
RESOURCESAT-2A          
1 41877U 16074A   24215.10654946  .00000288  00000+0  15104-3 0  9995
2 41877  98.6436 287.6355 0000809 159.0276 201.0935 14.21659911397118
CARTOSAT-2D             
1 41948U 17008A   24214.89842106  .00009727  00000+0  46357-3 0  9995
2 41948  97.4233 273.3961 0006626 123.0158 237.1714 15.19296862413683
SENTINEL-2B             
1 42063U 17013A   24214.73198821  .00000294  00000+0  12891-3 0  9997
2 42063  98.5675 288.3477 0001150  96.2800 263.8514 14.30826197386768
ZHUHAI-1 02 (CAS-4B)    
1 42759U 17034B   24215.03269594  .00023118  00000+0  78315-3 0  9995
2 42759  43.0191 327.1131 0013354 292.0547  67.8887 15.30060578394421
